STARLINK-4279           
1 53018U 22076AJ  25307.66492154  .00000555  00000+0  52969-4 0  9997
2 53018  53.2171 290.1271 0001349  93.4080 266.7067 15.08841302183953
STARLINK-4282           
1 53019U 22076AK  25307.68697101  .00001499  00000+0  11223-3 0  9994
2 53019  53.2172 289.7694 0001268  87.7072 272.4065 15.08839991183969
STARLINK-4287           
1 53020U 22076AL  25306.24440926  .00003225  00000+0  22055-3 0  9992
2 53020  53.2169 296.2464 0001427  86.7364 273.3791 15.08849957183740
STARLINK-4216           
1 53022U 22076AN  25307.69064590  .00000642  00000+0  58402-4 0  9999
2 53022  53.2172 289.7514 0001451  88.6055 271.5104 15.08845408183963
STARLINK-4284           
1 53023U 22076AP  25307.67225323  .00000895  00000+0  74284-4 0  9997
2 53023  53.2190 289.8237 0001529  87.8366 272.2801 15.08842859183968
STARLINK-4289           
1 53024U 22076AQ  25307.67590691  .00005922  00000+0  38962-3 0  9999
2 53024  53.2183 289.8164 0001312  89.6798 270.4345 15.08864037183964
STARLINK-4218           
1 53025U 22076AR  25307.66857479  .00000369  00000+0  41288-4 0  9995
2 53025  53.2173 289.8494 0001633  89.3303 270.7876 15.08839962183966
STARLINK-4119           
1 53026U 22076AS  25306.28215547  .00000177  00000+0  29194-4 0  9996
2 53026  53.2176 295.9694 0001458  98.5781 261.5377 15.08839184183754
STARLINK-4158           
1 53027U 22076AT  25307.65753281  .00003695  00000+0  25014-3 0  9995
2 53027  53.2174 289.9008 0001458  81.3541 278.7617 15.08837175183967
STARLINK-4143           
1 53029U 22076AV  25307.64372698 -.00000554  00000+0 -16739-4 0  9993
2 53029  53.2182 279.9625 0001733  93.5183 266.6008 15.08840310184095
STARLINK-4160           
1 53030U 22076AW  25307.68331605  .00000833  00000+0  70396-4 0  9999
2 53030  53.2166 289.9769 0001524  87.5357 272.5810 15.08842822183965
STARLINK-4137           
1 53031U 22076AX  25307.63269029  .00000730  00000+0  63954-4 0  9993
2 53031  53.2180 280.0119 0001542  85.9316 274.1853 15.08841695184097
STARLINK-4115           
1 53032U 22076AY  25307.66121137  .00000417  00000+0  44270-4 0  9996
2 53032  53.2175 289.8830 0001344  91.6273 268.4874 15.08838918183963
STARLINK-4167           
1 53033U 22076AZ  25307.63636818  .00001494  00000+0  11194-3 0  9995
2 53033  53.2184 279.9965 0001428  93.8196 266.2959 15.08845823184092
STARLINK-4151           
1 53034U 22076BA  25307.64468811 -.00001825  00000+0 -96571-4 0  9996
2 53034  53.2169 280.0064 0001382  96.5646 263.5504 15.08842922184091
STARLINK-4157           
1 53035U 22076BB  25306.23797514  .00001640  00000+0  12121-3 0  9997
2 53035  53.2177 286.2759 0001598  91.6536 268.4639 15.08818054183881
