[{"OBJECT_NAME":"STARLINK-4279","OBJECT_ID":"2022-076AJ","EPOCH":"2025-11-03T15:57:29.221056","MEAN_MOTION":15.08841302,"ECCENTRICITY":0.0001349,"INCLINATION":53.2171,"RA_OF_ASC_NODE":290.1271,"ARG_OF_PERICENTER":93.408,"MEAN_ANOMALY":266.7067,"EPHEMERIS_TYPE":0,"CLASSIFICATION_TYPE":"U","NORAD_CAT_ID":53018,"ELEMENT_SET_NO":999,"REV_AT_EPOCH":18395,"BSTAR":5.2969e-5,"MEAN_MOTION_DOT":5.55e-6,"MEAN_MOTION_DDOT":0},{"OBJECT_NAME":"STARLINK-4282","OBJECT_ID":"2022-076AK","EPOCH":"2025-11-03T16:29:14.295264","MEAN_MOTION":15.08839991,"ECCENTRICITY":0.0001268,"INCLINATION":53.2172,"RA_OF_ASC_NODE":289.7694,"ARG_OF_PERICENTER":87.7072,"MEAN_ANOMALY":272.4065,"EPHEMERIS_TYPE":0,"CLASSIFICATION_TYPE":"U","NORAD_CAT_ID":53019,"ELEMENT_SET_NO":999,"REV_AT_EPOCH":18396,"BSTAR":0.00011223,"MEAN_MOTION_DOT":1.499e-5,"MEAN_MOTION_DDOT":0},{"OBJECT_NAME":"STARLINK-4287","OBJECT_ID":"2022-076AL","EPOCH":"2025-11-02T05:51:56.960064","MEAN_MOTION":15.08849957,"ECCENTRICITY":0.00014274,"INCLINATION":53.2169,"RA_OF_ASC_NODE":296.2464,"ARG_OF_PERICENTER":86.7364,"MEAN_ANOMALY":273.3791,"EPHEMERIS_TYPE":0,"CLASSIFICATION_TYPE":"U","NORAD_CAT_ID":53020,"ELEMENT_SET_NO":999,"REV_AT_EPOCH":18374,"BSTAR":0.00022054737,"MEAN_MOTION_DOT":3.225e-5,"MEAN_MOTION_DDOT":0},{"OBJECT_NAME":"STARLINK-4216","OBJECT_ID":"2022-076AN","EPOCH":"2025-11-03T16:34:31.805760","MEAN_MOTION":15.08845408,"ECCENTRICITY":0.0001451,"INCLINATION":53.2172,"RA_OF_ASC_NODE":289.7514,"ARG_OF_PERICENTER":88.6055,"MEAN_ANOMALY":271.5104,"EPHEMERIS_TYPE":0,"CLASSIFICATION_TYPE":"U","NORAD_CAT_ID":53022,"ELEMENT_SET_NO":999,"REV_AT_EPOCH":18396,"BSTAR":5.8402e-5,"MEAN_MOTION_DOT":6.42e-6,"MEAN_MOTION_DDOT":0},{"OBJECT_NAME":"STARLINK-4284","OBJECT_ID":"2022-076AP","EPOCH":"2025-11-03T16:08:02.679072","MEAN_MOTION":15.08842859,"ECCENTRICITY":0.0001529,"INCLINATION":53.219,"RA_OF_ASC_NODE":289.8237,"ARG_OF_PERICENTER":87.8366,"MEAN_ANOMALY":272.2801,"EPHEMERIS_TYPE":0,"CLASSIFICATION_TYPE":"U","NORAD_CAT_ID":53023,"ELEMENT_SET_NO":999,"REV_AT_EPOCH":18396,"BSTAR":7.4284e-5,"MEAN_MOTION_DOT":8.95e-6,"MEAN_MOTION_DDOT":0},{"OBJECT_NAME":"STARLINK-4289","OBJECT_ID":"2022-076AQ","EPOCH":"2025-11-03T16:13:18.357024","MEAN_MOTION":15.08864037,"ECCENTRICITY":0.0001312,"INCLINATION":53.2183,"RA_OF_ASC_NODE":289.8164,"ARG_OF_PERICENTER":89.6798,"MEAN_ANOMALY":270.4345,"EPHEMERIS_TYPE":0,"CLASSIFICATION_TYPE":"U","NORAD_CAT_ID":53024,"ELEMENT_SET_NO":999,"REV_AT_EPOCH":18396,"BSTAR":0.00038962,"MEAN_MOTION_DOT":5.922e-5,"MEAN_MOTION_DDOT":0},{"OBJECT_NAME":"STARLINK-4218","OBJECT_ID":"2022-076AR","EPOCH":"2025-11-03T16:02:44.861856","MEAN_MOTION":15.08839962,"ECCENTRICITY":0.0001633,"INCLINATION":53.2173,"RA_OF_ASC_NODE":289.8494,"ARG_OF_PERICENTER":89.3303,"MEAN_ANOMALY":270.7876,"EPHEMERIS_TYPE":0,"CLASSIFICATION_TYPE":"U","NORAD_CAT_ID":53025,"ELEMENT_SET_NO":999,"REV_AT_EPOCH":18396,"BSTAR":4.1288e-5,"MEAN_MOTION_DOT":3.69e-6,"MEAN_MOTION_DDOT":0},{"OBJECT_NAME":"STARLINK-4119","OBJECT_ID":"2022-076AS","EPOCH":"2025-11-02T06:46:18.232608","MEAN_MOTION":15.08839184,"ECCENTRICITY":0.00014582,"INCLINATION":53.2176,"RA_OF_ASC_NODE":295.9694,"ARG_OF_PERICENTER":98.5781,"MEAN_ANOMALY":261.5377,"EPHEMERIS_TYPE":0,"CLASSIFICATION_TYPE":"U","NORAD_CAT_ID":53026,"ELEMENT_SET_NO":999,"REV_AT_EPOCH":18375,"BSTAR":2.9193767e-5,"MEAN_MOTION_DOT":1.77e-6,"MEAN_MOTION_DDOT":0},{"OBJECT_NAME":"STARLINK-4158","OBJECT_ID":"2022-076AT","EPOCH":"2025-11-03T15:46:50.834784","MEAN_MOTION":15.08837175,"ECCENTRICITY":0.0001458,"INCLINATION":53.2174,"RA_OF_ASC_NODE":289.9008,"ARG_OF_PERICENTER":81.3541,"MEAN_ANOMALY":278.7617,"EPHEMERIS_TYPE":0,"CLASSIFICATION_TYPE":"U","NORAD_CAT_ID":53027,"ELEMENT_SET_NO":999,"REV_AT_EPOCH":18396,"BSTAR":0.00025014,"MEAN_MOTION_DOT":3.695e-5,"MEAN_MOTION_DDOT":0},{"OBJECT_NAME":"STARLINK-4143","OBJECT_ID":"2022-076AV","EPOCH":"2025-11-03T15:26:58.011072","MEAN_MOTION":15.0884031,"ECCENTRICITY":0.0001733,"INCLINATION":53.2182,"RA_OF_ASC_NODE":279.9625,"ARG_OF_PERICENTER":93.5183,"MEAN_ANOMALY":266.6008,"EPHEMERIS_TYPE":0,"CLASSIFICATION_TYPE":"U","NORAD_CAT_ID":53029,"ELEMENT_SET_NO":999,"REV_AT_EPOCH":18409,"BSTAR":-1.6739e-5,"MEAN_MOTION_DOT":-5.54e-6,"MEAN_MOTION_DDOT":0},{"OBJECT_NAME":"STARLINK-4160","OBJECT_ID":"2022-076AW","EPOCH":"2025-11-03T16:23:58.506720","MEAN_MOTION":15.08842822,"ECCENTRICITY":0.0001524,"INCLINATION":53.2166,"RA_OF_ASC_NODE":289.9769,"ARG_OF_PERICENTER":87.5357,"MEAN_ANOMALY":272.581,"EPHEMERIS_TYPE":0,"CLASSIFICATION_TYPE":"U","NORAD_CAT_ID":53030,"ELEMENT_SET_NO":999,"REV_AT_EPOCH":18396,"BSTAR":7.0396e-5,"MEAN_MOTION_DOT":8.33e-6,"MEAN_MOTION_DDOT":0},{"OBJECT_NAME":"STARLINK-4137","OBJECT_ID":"2022-076AX","EPOCH":"2025-11-03T15:11:04.441056","MEAN_MOTION":15.08841695,"ECCENTRICITY":0.0001542,"INCLINATION":53.218,"RA_OF_ASC_NODE":280.0119,"ARG_OF_PERICENTER":85.9316,"MEAN_ANOMALY":274.1853,"EPHEMERIS_TYPE":0,"CLASSIFICATION_TYPE":"U","NORAD_CAT_ID":53031,"ELEMENT_SET_NO":999,"REV_AT_EPOCH":18409,"BSTAR":6.3954e-5,"MEAN_MOTION_DOT":7.3e-6,"MEAN_MOTION_DDOT":0},{"OBJECT_NAME":"STARLINK-4115","OBJECT_ID":"2022-076AY","EPOCH":"2025-11-03T15:52:08.662368","MEAN_MOTION":15.08838918,"ECCENTRICITY":0.0001344,"INCLINATION":53.2175,"RA_OF_ASC_NODE":289.883,"ARG_OF_PERICENTER":91.6273,"MEAN_ANOMALY":268.4874,"EPHEMERIS_TYPE":0,"CLASSIFICATION_TYPE":"U","NORAD_CAT_ID":53032,"ELEMENT_SET_NO":999,"REV_AT_EPOCH":18396,"BSTAR":4.427e-5,"MEAN_MOTION_DOT":4.17e-6,"MEAN_MOTION_DDOT":0},{"OBJECT_NAME":"STARLINK-4167","OBJECT_ID":"2022-076AZ","EPOCH":"2025-11-03T15:16:22.210752","MEAN_MOTION":15.08845823,"ECCENTRICITY":0.0001428,"INCLINATION":53.2184,"RA_OF_ASC_NODE":279.9965,"ARG_OF_PERICENTER":93.8196,"MEAN_ANOMALY":266.2959,"EPHEMERIS_TYPE":0,"CLASSIFICATION_TYPE":"U","NORAD_CAT_ID":53033,"ELEMENT_SET_NO":999,"REV_AT_EPOCH":18409,"BSTAR":0.00011194,"MEAN_MOTION_DOT":1.494e-5,"MEAN_MOTION_DDOT":0},{"OBJECT_NAME":"STARLINK-4151","OBJECT_ID":"2022-076BA","EPOCH":"2025-11-03T15:28:21.052704","MEAN_MOTION":15.08842922,"ECCENTRICITY":0.0001382,"INCLINATION":53.2169,"RA_OF_ASC_NODE":280.0064,"ARG_OF_PERICENTER":96.5646,"MEAN_ANOMALY":263.5504,"EPHEMERIS_TYPE":0,"CLASSIFICATION_TYPE":"U","NORAD_CAT_ID":53034,"ELEMENT_SET_NO":999,"REV_AT_EPOCH":18409,"BSTAR":-9.6571e-5,"MEAN_MOTION_DOT":-1.825e-5,"MEAN_MOTION_DDOT":0},{"OBJECT_NAME":"STARLINK-4157","OBJECT_ID":"2022-076BB","EPOCH":"2025-11-02T05:42:41.052096","MEAN_MOTION":15.08818054,"ECCENTRICITY":0.00015985,"INCLINATION":53.2177,"RA_OF_ASC_NODE":286.2759,"ARG_OF_PERICENTER":91.6536,"MEAN_ANOMALY":268.4639,"EPHEMERIS_TYPE":0,"CLASSIFICATION_TYPE":"U","NORAD_CAT_ID":53035,"ELEMENT_SET_NO":999,"REV_AT_EPOCH":18388,"BSTAR":0.000121208,"MEAN_MOTION_DOT":1.64e-5,"MEAN_MOTION_DDOT":0}]
